CCSDS_OMM_VERS = 2.0
CREATION_DATE  = 
ORIGINATOR     = 

OBJECT_NAME    = STARLINK-36352
OBJECT_ID      = 2026-016G
CENTER_NAME    = EARTH
REF_FRAME      = TEME
TIME_SYSTEM    = UTC
MEAN_ELEMENT_THEORY = SGP/SGP4

EPOCH          = 2026-01-30T16:33:35.657856
MEAN_MOTION    = 16.02864720
ECCENTRICITY   = .00011913
INCLINATION    = 97.2824
RA_OF_ASC_NODE = 89.0305
ARG_OF_PERICENTER = 38.2782
MEAN_ANOMALY   = 321.8583

EPHEMERIS_TYPE = 0
CLASSIFICATION_TYPE = U
NORAD_CAT_ID   = 67567
ELEMENT_SET_NO = 999
REV_AT_EPOCH   = 80
BSTAR          = -.82561045E-3
MEAN_MOTION_DOT = -.493869E-2
MEAN_MOTION_DDOT = .91069748E-4

CCSDS_OMM_VERS = 2.0
CREATION_DATE  = 
ORIGINATOR     = 

OBJECT_NAME    = STARLINK-36435
OBJECT_ID      = 2026-016H
CENTER_NAME    = EARTH
REF_FRAME      = TEME
TIME_SYSTEM    = UTC
MEAN_ELEMENT_THEORY = SGP/SGP4

EPOCH          = 2026-01-30T16:32:49.164288
MEAN_MOTION    = 16.03225859
ECCENTRICITY   = .00003751
INCLINATION    = 97.2826
RA_OF_ASC_NODE = 89.0292
ARG_OF_PERICENTER = 146.6759
MEAN_ANOMALY   = 213.4545

EPHEMERIS_TYPE = 0
CLASSIFICATION_TYPE = U
NORAD_CAT_ID   = 67568
ELEMENT_SET_NO = 999
REV_AT_EPOCH   = 80
BSTAR          = -.71291135E-3
MEAN_MOTION_DOT = -.43579E-2
MEAN_MOTION_DDOT = .72428332E-4

CCSDS_OMM_VERS = 2.0
CREATION_DATE  = 
ORIGINATOR     = 

OBJECT_NAME    = STARLINK-36575
OBJECT_ID      = 2026-016J
CENTER_NAME    = EARTH
REF_FRAME      = TEME
TIME_SYSTEM    = UTC
MEAN_ELEMENT_THEORY = SGP/SGP4

EPOCH          = 2026-01-30T06:02:31.154208
MEAN_MOTION    = 16.07860801
ECCENTRICITY   = .0006653
INCLINATION    = 97.2830
RA_OF_ASC_NODE = 88.5554
ARG_OF_PERICENTER = 226.6851
MEAN_ANOMALY   = 133.3878

EPHEMERIS_TYPE = 0
CLASSIFICATION_TYPE = U
NORAD_CAT_ID   = 67569
ELEMENT_SET_NO = 999
REV_AT_EPOCH   = 73
BSTAR          = .25664402E-2
MEAN_MOTION_DOT = .1976161E-1
MEAN_MOTION_DDOT = .32032726E-2

CCSDS_OMM_VERS = 2.0
CREATION_DATE  = 
ORIGINATOR     = 

OBJECT_NAME    = STARLINK-36562
OBJECT_ID      = 2026-016K
CENTER_NAME    = EARTH
REF_FRAME      = TEME
TIME_SYSTEM    = UTC
MEAN_ELEMENT_THEORY = SGP/SGP4

EPOCH          = 2026-01-30T16:32:06.868032
MEAN_MOTION    = 16.03516707
ECCENTRICITY   = .0000243
INCLINATION    = 97.2827
RA_OF_ASC_NODE = 89.0318
ARG_OF_PERICENTER = 132.4972
MEAN_ANOMALY   = 227.6329

EPHEMERIS_TYPE = 0
CLASSIFICATION_TYPE = U
NORAD_CAT_ID   = 67570
ELEMENT_SET_NO = 999
REV_AT_EPOCH   = 80
BSTAR          = -.71642973E-3
MEAN_MOTION_DOT = -.4455E-2
MEAN_MOTION_DDOT = .75737352E-4

CCSDS_OMM_VERS = 2.0
CREATION_DATE  = 
ORIGINATOR     = 

OBJECT_NAME    = STARLINK-36578
OBJECT_ID      = 2026-016L
CENTER_NAME    = EARTH
REF_FRAME      = TEME
TIME_SYSTEM    = UTC
MEAN_ELEMENT_THEORY = SGP/SGP4

EPOCH          = 2026-01-30T18:00:02.000160
MEAN_MOTION    = 16.03255571
ECCENTRICITY   = .00012558
INCLINATION    = 97.2827
RA_OF_ASC_NODE = 89.0985
ARG_OF_PERICENTER = 76.5846
MEAN_ANOMALY   = 276.9999

EPHEMERIS_TYPE = 0
CLASSIFICATION_TYPE = U
NORAD_CAT_ID   = 67571
ELEMENT_SET_NO = 999
REV_AT_EPOCH   = 193
BSTAR          = -.24914859E-2
MEAN_MOTION_DOT = -.1512244E-1
MEAN_MOTION_DDOT = .73190173E-3

CCSDS_OMM_VERS = 2.0
CREATION_DATE  = 
ORIGINATOR     = 

OBJECT_NAME    = STARLINK-36350
OBJECT_ID      = 2026-016M
CENTER_NAME    = EARTH
REF_FRAME      = TEME
TIME_SYSTEM    = UTC
MEAN_ELEMENT_THEORY = SGP/SGP4

EPOCH          = 2026-01-30T18:00:02.000160
MEAN_MOTION    = 16.03437768
ECCENTRICITY   = .0001327
INCLINATION    = 97.2827
RA_OF_ASC_NODE = 89.0991
ARG_OF_PERICENTER = 69.5181
MEAN_ANOMALY   = 285.7353

EPHEMERIS_TYPE = 0
CLASSIFICATION_TYPE = U
NORAD_CAT_ID   = 67572
ELEMENT_SET_NO = 999
REV_AT_EPOCH   = 184
BSTAR          = -.24534803E-2
MEAN_MOTION_DOT = -.1505366E-1
MEAN_MOTION_DDOT = .72729305E-3

CCSDS_OMM_VERS = 2.0
CREATION_DATE  = 
ORIGINATOR     = 

OBJECT_NAME    = STARLINK-36588
OBJECT_ID      = 2026-016N
CENTER_NAME    = EARTH
REF_FRAME      = TEME
TIME_SYSTEM    = UTC
MEAN_ELEMENT_THEORY = SGP/SGP4

EPOCH          = 2026-01-30T18:00:02.000160
MEAN_MOTION    = 16.03651240
ECCENTRICITY   = .00012196
INCLINATION    = 97.2822
RA_OF_ASC_NODE = 89.0999
ARG_OF_PERICENTER = 71.9232
MEAN_ANOMALY   = 285.1455

EPHEMERIS_TYPE = 0
CLASSIFICATION_TYPE = U
NORAD_CAT_ID   = 67573
ELEMENT_SET_NO = 999
REV_AT_EPOCH   = 200
BSTAR          = -.24271268E-2
MEAN_MOTION_DOT = -.1508057E-1
MEAN_MOTION_DDOT = .73157191E-3

CCSDS_OMM_VERS = 2.0
CREATION_DATE  = 
ORIGINATOR     = 

OBJECT_NAME    = STARLINK-36594
OBJECT_ID      = 2026-016P
CENTER_NAME    = EARTH
REF_FRAME      = TEME
TIME_SYSTEM    = UTC
MEAN_ELEMENT_THEORY = SGP/SGP4

EPOCH          = 2026-01-30T18:00:02.000160
MEAN_MOTION    = 16.03777338
ECCENTRICITY   = .0001196
INCLINATION    = 97.2821
RA_OF_ASC_NODE = 89.1000
ARG_OF_PERICENTER = 66.7228
MEAN_ANOMALY   = 291.5761

EPHEMERIS_TYPE = 0
CLASSIFICATION_TYPE = U
NORAD_CAT_ID   = 67574
ELEMENT_SET_NO = 999
REV_AT_EPOCH   = 200
BSTAR          = -.24190935E-2
MEAN_MOTION_DOT = -.1514261E-1
MEAN_MOTION_DDOT = .73829888E-3

CCSDS_OMM_VERS = 2.0
CREATION_DATE  = 
ORIGINATOR     = 

OBJECT_NAME    = STARLINK-36400
OBJECT_ID      = 2026-016Q
CENTER_NAME    = EARTH
REF_FRAME      = TEME
TIME_SYSTEM    = UTC
MEAN_ELEMENT_THEORY = SGP/SGP4

EPOCH          = 2026-01-30T18:00:02.000160
MEAN_MOTION    = 16.03892144
ECCENTRICITY   = .00012055
INCLINATION    = 97.2824
RA_OF_ASC_NODE = 89.1010
ARG_OF_PERICENTER = 75.6715
MEAN_ANOMALY   = 283.9623

EPHEMERIS_TYPE = 0
CLASSIFICATION_TYPE = U
NORAD_CAT_ID   = 67575
ELEMENT_SET_NO = 999
REV_AT_EPOCH   = 189
BSTAR          = -.23558162E-2
MEAN_MOTION_DOT = -.1485084E-1
MEAN_MOTION_DDOT = .71302173E-3

CCSDS_OMM_VERS = 2.0
CREATION_DATE  = 
ORIGINATOR     = 

OBJECT_NAME    = STARLINK-36591
OBJECT_ID      = 2026-016R
CENTER_NAME    = EARTH
REF_FRAME      = TEME
TIME_SYSTEM    = UTC
MEAN_ELEMENT_THEORY = SGP/SGP4

EPOCH          = 2026-01-30T18:00:02.000160
MEAN_MOTION    = 16.04031994
ECCENTRICITY   = .0001153
INCLINATION    = 97.2821
RA_OF_ASC_NODE = 89.1012
ARG_OF_PERICENTER = 81.0860
MEAN_ANOMALY   = 279.8891

EPHEMERIS_TYPE = 0
CLASSIFICATION_TYPE = U
NORAD_CAT_ID   = 67576
ELEMENT_SET_NO = 999
REV_AT_EPOCH   = 195
BSTAR          = -.23273007E-2
MEAN_MOTION_DOT = -.1479416E-1
MEAN_MOTION_DDOT = .70915363E-3

CCSDS_OMM_VERS = 2.0
CREATION_DATE  = 
ORIGINATOR     = 

OBJECT_NAME    = STARLINK-36590
OBJECT_ID      = 2026-016S
CENTER_NAME    = EARTH
REF_FRAME      = TEME
TIME_SYSTEM    = UTC
MEAN_ELEMENT_THEORY = SGP/SGP4

EPOCH          = 2026-01-30T18:00:02.000160
MEAN_MOTION    = 16.04161000
ECCENTRICITY   = .00013014
INCLINATION    = 97.2818
RA_OF_ASC_NODE = 89.1018
ARG_OF_PERICENTER = 65.2496
MEAN_ANOMALY   = 296.9797

EPHEMERIS_TYPE = 0
CLASSIFICATION_TYPE = U
NORAD_CAT_ID   = 67577
ELEMENT_SET_NO = 999
REV_AT_EPOCH   = 195
BSTAR          = -.23120273E-2
MEAN_MOTION_DOT = -.1481062E-1
MEAN_MOTION_DDOT = .7117273E-3

CCSDS_OMM_VERS = 2.0
CREATION_DATE  = 
ORIGINATOR     = 

OBJECT_NAME    = STARLINK-36613
OBJECT_ID      = 2026-016T
CENTER_NAME    = EARTH
REF_FRAME      = TEME
TIME_SYSTEM    = UTC
MEAN_ELEMENT_THEORY = SGP/SGP4

EPOCH          = 2026-01-30T18:00:02.000160
MEAN_MOTION    = 16.04312189
ECCENTRICITY   = .00011687
INCLINATION    = 97.2817
RA_OF_ASC_NODE = 89.1023
ARG_OF_PERICENTER = 76.6003
MEAN_ANOMALY   = 287.0607

EPHEMERIS_TYPE = 0
CLASSIFICATION_TYPE = U
NORAD_CAT_ID   = 67578
ELEMENT_SET_NO = 999
REV_AT_EPOCH   = 195
BSTAR          = -.22854454E-2
MEAN_MOTION_DOT = -.1477318E-1
MEAN_MOTION_DDOT = .70967085E-3

